STARLINK-31603          
1 59201U 24046A   26068.48089547 -.00004777  00000+0 -14927-3 0  9992
2 59201  53.1597 156.5924 0001907  78.3131 281.8084 15.30195025113019
TEVEL2-5                
1 63214U 25052E   26068.96660006  .00021339  00000+0  71765-3 0  9991
2 63214  97.4013 325.3677 0004700  95.3936 264.7842 15.30817434 54919
